STARLINK-3093
1 49141U 21082M   26119.24707953  .00003442  00000+0  29625-3 0  9997
2 49141  70.0009 166.9950 0003306 251.4244 108.6556 14.98312093254751
